OBJECT_NAME,OBJECT_ID,EPOCH,MEAN_MOTION,ECCENTRICITY,INCLINATION,RA_OF_ASC_NODE,ARG_OF_PERICENTER,MEAN_ANOMALY,EPHEMERIS_TYPE,CLASSIFICATION_TYPE,NORAD_CAT_ID,ELEMENT_SET_NO,REV_AT_EPOCH,BSTAR,MEAN_MOTION_DOT,MEAN_MOTION_DDOT
STARLINK-31042,2024-005M,2026-07-21T00:16:37.622784,15.27578711,.00010506,43.0023,186.8044,298.2198,61.8548,0,U,58739,999,14083,.18012733E-4,.234E-5,0
STARLINK-31159,2024-005N,2026-07-22T07:00:53.188992,15.27611162,.00012073,42.9997,179.2199,284.2430,75.8287,0,U,58740,999,14112,-.24966556E-3,-.7132E-4,0
STARLINK-31148,2024-005P,2026-07-22T07:12:00.050976,15.27578151,.00008401,43.0002,179.2915,278.2495,81.8261,0,U,58741,999,14103,.9815291E-5,.8E-7,0
STARLINK-31151,2024-005Q,2026-07-20T23:59:58.776576,15.27576851,.00010127,43.0014,186.7375,274.7562,85.3174,0,U,58742,999,14092,.26243081E-4,.46E-5,0
STARLINK-31156,2024-005R,2026-07-21T00:05:31.997184,15.27574938,.00006604,43.0020,186.7680,264.8531,95.2246,0,U,58743,999,14088,.686027E-5,-.73E-6,0
STARLINK-31167,2024-005S,2026-07-22T06:07:44.276448,15.27564089,.00027887,43.0062,34.3522,251.6995,108.3554,0,U,58744,999,14278,-.6650148E-4,-.2092E-4,0
STARLINK-31176,2024-005T,2026-07-21T00:25:53.133312,15.27574321,.0001243,43.0032,186.8702,280.9683,79.1029,0,U,58745,999,14087,-.3408629E-5,-.356E-5,0
STARLINK-31181,2024-005U,2026-07-21T20:57:07.061760,15.27581216,.00009167,43.0009,29.7253,277.2539,82.8209,0,U,58746,999,14280,.41093155E-4,.869E-5,0
STARLINK-31183,2024-005V,2026-07-21T08:27:46.041408,15.27575153,.00017752,43.0019,185.0791,281.1463,78.9189,0,U,58747,999,14098,.17323825E-4,.214E-5,0
STARLINK-31165,2024-005W,2026-07-21T16:13:00.627744,15.27587971,.0001435,43.0044,183.2011,260.8090,99.2599,0,U,58748,999,14093,.12333012E-3,.3134E-4,0
STARLINK-31160,2024-005X,2026-07-22T06:40:44.426208,15.27577204,.00015042,43.0014,179.9135,265.4379,94.6301,0,U,58749,999,14102,-.5477649E-5,-.413E-5,0
STARLINK-31179,2024-005Y,2026-07-22T00:13:01.635744,15.27583347,.00017819,43.0033,181.4030,272.1025,87.9622,0,U,58750,999,14098,.47685134E-4,.105E-4,0
STARLINK-31127,2024-011A,2026-07-22T01:36:52.662816,15.30221317,.00014098,53.1606,109.5433,76.2567,283.8591,0,U,58765,999,14084,.40891297E-4,.853E-5,0
STARLINK-31114,2024-011B,2026-07-22T00:15:45.441504,15.30193925,.00015106,53.1605,107.7876,88.9347,271.1827,0,U,58766,999,14086,.68005877E-4,.1655E-4,0
STARLINK-31140,2024-011C,2026-07-22T00:22:24.028032,15.34400747,.00012726,53.1609,108.5125,95.9551,264.1596,0,U,58767,999,14085,.41101202E-4,.1013E-4,0
STARLINK-31146,2024-011E,2026-07-22T00:31:29.507520,15.34406442,.00014564,53.1599,108.5502,74.5821,285.5343,0,U,58769,999,14085,.97336619E-4,.2914E-4,0
STARLINK-31143,2024-011F,2026-07-22T00:40:34.640544,15.34406220,.00014648,53.1609,108.5954,101.9057,258.2110,0,U,58770,999,14085,.67517432E-4,.1906E-4,0
STARLINK-31135,2024-011G,2026-07-22T00:00:32.935680,15.30196856,.00013134,53.1605,107.7214,107.3284,252.7861,0,U,58771,999,14086,.20611246E-4,.251E-5,0
STARLINK-31136,2024-011H,2026-07-22T00:13:18.136416,15.34405869,.00013249,53.1604,108.4656,95.1083,265.0071,0,U,58772,999,14084,.51792127E-4,.1374E-4,0
STARLINK-31073,2024-011J,2026-07-22T00:07:23.791008,15.30199125,.00015231,53.1600,109.8645,80.0108,280.1065,0,U,58773,999,14083,.1750341E-4,.159E-5,0
STARLINK-31122,2024-011K,2026-07-21T11:44:05.719776,15.30196873,.00012506,53.1587,112.3218,76.2370,283.8770,0,U,58774,999,14075,.35048883E-4,.679E-5,0
STARLINK-31123,2024-011L,2026-07-22T01:04:41.805120,15.34402059,.00016092,53.1584,107.9827,86.1564,273.9623,0,U,58775,999,1411,.35687458E-4,.829E-5,0
STARLINK-31117,2024-011M,2026-07-22T00:27:08.435232,15.30209646,.0001448,53.1592,109.9414,74.5999,285.5162,0,U,58776,999,14083,.6330828E-5,-.172E-5,0
STARLINK-31132,2024-011N,2026-07-21T12:45:29.697408,15.31703775,.00013529,53.1623,20.9517,99.6215,260.4940,0,U,58777,999,14206,.10953646E-4,-.25E-6,0
STARLINK-31120,2024-011P,2026-07-21T18:13:16.764384,15.34398845,.00012682,53.1609,109.7456,92.7244,267.3904,0,U,58778,999,14081,.66227983E-4,.1862E-4,0
STARLINK-31142,2024-011Q,2026-07-22T00:24:06.048288,15.30208197,.00015517,53.1590,109.9264,87.5706,272.5473,0,U,58779,999,14083,.18597816E-4,.192E-5,0
STARLINK-31099,2024-011S,2026-07-21T03:56:51.359712,15.30202170,.0001505,53.1598,113.8487,76.9474,283.1694,0,U,58781,999,14070,.48387941E-4,.1074E-4,0
STARLINK-31047,2024-011U,2026-07-21T03:21:58.593600,15.34403493,.00013893,53.1606,96.2046,88.5865,271.5297,0,U,58783,999,14094,.36296285E-4,.85E-5,0
STARLINK-31039,2024-011V,2026-07-22T00:10:25.539456,15.30210058,.00013526,53.1589,109.8638,86.6912,273.4244,0,U,58784,999,14083,.46457303E-3,.13429E-3,0
STARLINK-31034,2024-011W,2026-07-20T18:46:03.859104,15.34392465,.00010807,53.1607,10.5708,79.0955,281.0169,0,U,58785,999,14214,.28782067E-4,.596E-5,0
