STARLINK-31042          
1 58739U 24005M   26202.01154656  .00000234  00000+0  18013-4 0  9998
2 58739  43.0023 186.8044 0001050 298.2198  61.8548 15.27578711140834
STARLINK-31159          
1 58740U 24005N   26203.29228228 -.00007132  00000+0 -24967-3 0  9998
2 58740  42.9997 179.2199 0001207 284.2430  75.8287 15.27611162141125
STARLINK-31148          
1 58741U 24005P   26203.30000059  .00000008  00000+0  98153-5 0  9994
2 58741  43.0002 179.2915 0000840 278.2495  81.8261 15.27578151141036
STARLINK-31151          
1 58742U 24005Q   26201.99998584  .00000460  00000+0  26243-4 0  9999
2 58742  43.0014 186.7375 0001012 274.7562  85.3174 15.27576851140925
STARLINK-31156          
1 58743U 24005R   26202.00384256 -.00000073  00000+0  68603-5 0  9996
2 58743  43.0020 186.7680 0000660 264.8531  95.2246 15.27574938140885
STARLINK-31167          
1 58744U 24005S   26203.25537357 -.00002092  00000+0 -66501-4 0  9995
2 58744  43.0062  34.3522 0002788 251.6995 108.3554 15.27564089142781
STARLINK-31176          
1 58745U 24005T   26202.01797608 -.00000356  00000+0 -34086-5 0  9991
2 58745  43.0032 186.8702 0001243 280.9683  79.1029 15.27574321140876
STARLINK-31181          
1 58746U 24005U   26202.87299840  .00000869  00000+0  41093-4 0  9993
2 58746  43.0009  29.7253 0000916 277.2539  82.8209 15.27581216142809
STARLINK-31183          
1 58747U 24005V   26202.35261622  .00000214  00000+0  17324-4 0  9998
2 58747  43.0019 185.0791 0001775 281.1463  78.9189 15.27575153140981
STARLINK-31165          
1 58748U 24005W   26202.67570171  .00003134  00000+0  12333-3 0  9994
2 58748  43.0044 183.2011 0001435 260.8090  99.2599 15.27587971140935
STARLINK-31160          
1 58749U 24005X   26203.27829197 -.00000413  00000+0 -54776-5 0  9995
2 58749  43.0014 179.9135 0001504 265.4379  94.6301 15.27577204141029
STARLINK-31179          
1 58750U 24005Y   26203.00904671  .00001050  00000+0  47685-4 0  9995
2 58750  43.0033 181.4030 0001781 272.1025  87.9622 15.27583347140984
STARLINK-31127          
1 58765U 24011A   26203.06727619  .00000853  00000+0  40891-4 0  9991
2 58765  53.1606 109.5433 0001409  76.2567 283.8591 15.30221317140844
STARLINK-31114          
1 58766U 24011B   26203.01094261  .00001655  00000+0  68006-4 0  9996
2 58766  53.1605 107.7876 0001510  88.9347 271.1827 15.30193925140861
STARLINK-31140          
1 58767U 24011C   26203.01555588  .00001013  00000+0  41101-4 0  9996
2 58767  53.1609 108.5125 0001272  95.9551 264.1596 15.34400747140853
STARLINK-31146          
1 58769U 24011E   26203.02186930  .00002914  00000+0  97337-4 0  9993
2 58769  53.1599 108.5502 0001456  74.5821 285.5343 15.34406442140854
STARLINK-31143          
1 58770U 24011F   26203.02817871  .00001906  00000+0  67517-4 0  9997
2 58770  53.1609 108.5954 0001464 101.9057 258.2110 15.34406220140857
STARLINK-31135          
1 58771U 24011G   26203.00038120  .00000251  00000+0  20611-4 0  9994
2 58771  53.1605 107.7214 0001313 107.3284 252.7861 15.30196856140869
STARLINK-31136          
1 58772U 24011H   26203.00923769  .00001374  00000+0  51792-4 0  9998
2 58772  53.1604 108.4656 0001324  95.1083 265.0071 15.34405869140849
STARLINK-31073          
1 58773U 24011J   26203.00513647  .00000159  00000+0  17503-4 0  9991
2 58773  53.1600 109.8645 0001523  80.0108 280.1065 15.30199125140832
STARLINK-31122          
1 58774U 24011K   26202.48895509  .00000679  00000+0  35049-4 0  9995
2 58774  53.1587 112.3218 0001250  76.2370 283.8770 15.30196873140758
STARLINK-31123          
1 58775U 24011L   26203.04492830  .00000829  00000+0  35687-4 0  9994
2 58775  53.1584 107.9827 0001609  86.1564 273.9623 15.34402059 14112
STARLINK-31117          
1 58776U 24011M   26203.01884763 -.00000172  00000+0  63308-5 0  9996
2 58776  53.1592 109.9414 0001448  74.5999 285.5162 15.30209646140839
STARLINK-31132          
1 58777U 24011N   26202.53159372 -.00000025  00000+0  10954-4 0  9999
2 58777  53.1623  20.9517 0001352  99.6215 260.4940 15.31703775142060
STARLINK-31120          
1 58778U 24011P   26202.75922181  .00001862  00000+0  66228-4 0  9994
2 58778  53.1609 109.7456 0001268  92.7244 267.3904 15.34398845140813
STARLINK-31142          
1 58779U 24011Q   26203.01673667  .00000192  00000+0  18598-4 0  9999
2 58779  53.1590 109.9264 0001551  87.5706 272.5473 15.30208197140839
STARLINK-31099          
1 58781U 24011S   26202.16448333  .00001074  00000+0  48388-4 0  9997
2 58781  53.1598 113.8487 0001505  76.9474 283.1694 15.30202170140708
STARLINK-31047          
1 58783U 24011U   26202.14026150  .00000850  00000+0  36296-4 0  9992
2 58783  53.1606  96.2046 0001389  88.5865 271.5297 15.34403493140949
STARLINK-31039          
1 58784U 24011V   26203.00724004  .00013429  00000+0  46457-3 0  9997
2 58784  53.1589 109.8638 0001352  86.6912 273.4244 15.30210058140830
STARLINK-31034          
1 58785U 24011W   26201.78198911  .00000596  00000+0  28782-4 0  9996
2 58785  53.1607  10.5708 0001080  79.0955 281.0169 15.34392465142143
